start=new Date('2023-04-25T00:00:00.000Z').valueOf();
sats=[{"TLE_LINE1":"1 55398U 23014H   23114.64061297 -.00038218  00000-0 -32199-3 0  9997","ECCENTRICITY":"0.00031490","COUNTRY_CODE":"US","MEAN_ANOMALY":"66.5545","LAUNCH_DATE":"2023-01-31","CLASSIFICATION_TYPE":"U","ELEMENT_SET_NO":"999","SEMIMAJOR_AXIS":"6738.214","BSTAR":"-0.00032199000000","OBJECT_TYPE":"PAYLOAD","NORAD_CAT_ID":"55398","EPHEMERIS_TYPE":"0","GP_ID":"230703448","DECAY_DATE":null,"FILE":"3893387","REF_FRAME":"TEME","APOAPSIS":"362.201","TLE_LINE2":"2 55398  69.9979 216.4590 0003149 293.5320  66.5545 15.69587490 13222","REV_AT_EPOCH":"1322","OBJECT_ID":"2023-014H","MEAN_MOTION_DDOT":"0.0000000000000","MEAN_MOTION_DOT":"-0.00038218","EPOCH":"2023-04-24T15:22:28.960608","MEAN_MOTION":"15.69587490","INCLINATION":"69.9979","OBJECT_NAME":"STARLINK-5275","RCS_SIZE":"LARGE","PERIOD":"91.744","PERIAPSIS":"357.957","ARG_OF_PERICENTER":"293.5320","MEAN_ELEMENT_THEORY":"SGP4","CENTER_NAME":"EARTH","TIME_SYSTEM":"UTC","SITE":"AFWTR","RA_OF_ASC_NODE":"216.4590"},{"MEAN_MOTION_DDOT":"0.0000000000000","REF_FRAME":"TEME","APOAPSIS":"361.126","REV_AT_EPOCH":"1323","OBJECT_ID":"2023-014J","TLE_LINE2":"2 55399  69.9995 216.2767 0002895 257.6841 102.4030 15.69903329 13234","FILE":"3893387","DECAY_DATE":null,"OBJECT_TYPE":"PAYLOAD","BSTAR":"0.00000514800000","NORAD_CAT_ID":"55399","EPHEMERIS_TYPE":"0","GP_ID":"230703445","ELEMENT_SET_NO":"999","SEMIMAJOR_AXIS":"6737.311","CLASSIFICATION_TYPE":"U","LAUNCH_DATE":"2023-01-31","MEAN_ANOMALY":"102.4030","ECCENTRICITY":"0.00028950","TLE_LINE1":"1 55399U 23014J   23114.70380432  .00000406  00000-0  51480-5 0  9992","COUNTRY_CODE":"US","SITE":"AFWTR","RA_OF_ASC_NODE":"216.2767","CENTER_NAME":"EARTH","TIME_SYSTEM":"UTC","MEAN_ELEMENT_THEORY":"SGP4","PERIAPSIS":"357.225","ARG_OF_PERICENTER":"257.6841","PERIOD":"91.725","RCS_SIZE":"LARGE","OBJECT_NAME":"STARLINK-5276","INCLINATION":"69.9995","MEAN_MOTION":"15.69903329","MEAN_MOTION_DOT":"0.00000406","EPOCH":"2023-04-24T16:53:28.693248"},{"PERIOD":"91.711","RCS_SIZE":"LARGE","MEAN_MOTION":"15.70148310","OBJECT_NAME":"STARLINK-5632","INCLINATION":"69.9973","EPOCH":"2023-04-24T06:11:32.749152","MEAN_MOTION_DOT":"0.00029808","RA_OF_ASC_NODE":"217.5321","SITE":"AFWTR","TIME_SYSTEM":"UTC","CENTER_NAME":"EARTH","ARG_OF_PERICENTER":"259.3374","PERIAPSIS":"355.957","MEAN_ELEMENT_THEORY":"SGP4","SEMIMAJOR_AXIS":"6736.610","ELEMENT_SET_NO":"999","LAUNCH_DATE":"2023-01-31","CLASSIFICATION_TYPE":"U","MEAN_ANOMALY":"100.7401","COUNTRY_CODE":"US","TLE_LINE1":"1 55400U 23014K   23114.25801793  .00029808  00000-0  24648-3 0  9994","ECCENTRICITY":"0.00037380","MEAN_MOTION_DDOT":"0.0000000000000","TLE_LINE2":"2 55400  69.9973 217.5321 0003738 259.3374 100.7401 15.70148310 14103","OBJECT_ID":"2023-014K","REV_AT_EPOCH":"1410","REF_FRAME":"TEME","APOAPSIS":"360.993","DECAY_DATE":null,"FILE":"3893330","GP_ID":"230701698","BSTAR":"0.00024648000000","OBJECT_TYPE":"PAYLOAD","NORAD_CAT_ID":"55400","EPHEMERIS_TYPE":"0"},{"MEAN_MOTION":"15.71338451","OBJECT_NAME":"STARLINK-5076","INCLINATION":"69.9986","EPOCH":"2023-04-24T16:52:51.212064","MEAN_MOTION_DOT":"0.00498410","PERIOD":"91.642","RCS_SIZE":"LARGE","PERIAPSIS":"348.775","ARG_OF_PERICENTER":"319.1651","MEAN_ELEMENT_THEORY":"SGP4","RA_OF_ASC_NODE":"216.2739","SITE":"AFWTR","TIME_SYSTEM":"UTC","CENTER_NAME":"EARTH","MEAN_ANOMALY":"40.8844","COUNTRY_CODE":"US","TLE_LINE1":"1 55401U 23014L   23114.70337051  .00498410  00000-0  36787-2 0  9991","ECCENTRICITY":"0.00093530","SEMIMAJOR_AXIS":"6733.208","ELEMENT_SET_NO":"999","LAUNCH_DATE":"2023-01-31","CLASSIFICATION_TYPE":"U","FILE":"3893407","DECAY_DATE":null,"GP_ID":"230704456","BSTAR":"0.00367870000000","OBJECT_TYPE":"PAYLOAD","NORAD_CAT_ID":"55401","EPHEMERIS_TYPE":"0","MEAN_MOTION_DDOT":"0.0000000000000","TLE_LINE2":"2 55401  69.9986 216.2739 0009353 319.1651  40.8844 15.71338451 13235","REV_AT_EPOCH":"1323","OBJECT_ID":"2023-014L","REF_FRAME":"TEME","APOAPSIS":"361.370"},{"SITE":"AFWTR","RA_OF_ASC_NODE":"217.5317","CENTER_NAME":"EARTH","TIME_SYSTEM":"UTC","PERIAPSIS":"357.026","MEAN_ELEMENT_THEORY":"SGP4","ARG_OF_PERICENTER":"254.8819","PERIOD":"91.723","RCS_SIZE":"LARGE","INCLINATION":"69.9997","OBJECT_NAME":"STARLINK-5071","MEAN_MOTION":"15.69944555","MEAN_MOTION_DOT":"0.00007016","EPOCH":"2023-04-24T06:12:09.064800","MEAN_MOTION_DDOT":"0.0000000000000","APOAPSIS":"361.090","REF_FRAME":"TEME","OBJECT_ID":"2023-014M","REV_AT_EPOCH":"1410","TLE_LINE2":"2 55402  69.9997 217.5317 0003016 254.8819 105.2043 15.69944555 14104","FILE":"3893330","DECAY_DATE":null,"OBJECT_TYPE":"PAYLOAD","NORAD_CAT_ID":"55402","BSTAR":"0.00006002000000","EPHEMERIS_TYPE":"0","GP_ID":"230702199","ELEMENT_SET_NO":"999","SEMIMAJOR_AXIS":"6737.193","LAUNCH_DATE":"2023-01-31","CLASSIFICATION_TYPE":"U","MEAN_ANOMALY":"105.2043","ECCENTRICITY":"0.00030160","TLE_LINE1":"1 55402U 23014M   23114.25843825  .00007016  00000-0  60020-4 0  9990","COUNTRY_CODE":"US"},{"CENTER_NAME":"EARTH","TIME_SYSTEM":"UTC","SITE":"AFWTR","RA_OF_ASC_NODE":"215.6800","ARG_OF_PERICENTER":"273.6115","PERIAPSIS":"356.784","MEAN_ELEMENT_THEORY":"SGP4","RCS_SIZE":"LARGE","PERIOD":"91.727","MEAN_MOTION_DOT":"0.00035856","EPOCH":"2023-04-24T22:00:01.999584","INCLINATION":"69.9996","OBJECT_NAME":"STARLINK-5597","MEAN_MOTION":"15.69872472","APOAPSIS":"361.744","REF_FRAME":"TEME","OBJECT_ID":"2023-014N","REV_AT_EPOCH":"1326","TLE_LINE2":"2 55403  69.9996 215.6800 0003681 273.6115 207.3819 15.69872472 13265","MEAN_MOTION_DDOT":"0.0000000000000","OBJECT_TYPE":"PAYLOAD","EPHEMERIS_TYPE":"0","BSTAR":"0.00029931000000","NORAD_CAT_ID":"55403","GP_ID":"230703996","DECAY_DATE":null,"FILE":"3893407","LAUNCH_DATE":"2023-01-31","CLASSIFICATION_TYPE":"U","ELEMENT_SET_NO":"999","SEMIMAJOR_AXIS":"6737.399","ECCENTRICITY":"0.00036810","TLE_LINE1":"1 55403U 23014N   23114.91668981  .00035856  00000-0  29931-3 0  9990","COUNTRY_CODE":"US","MEAN_ANOMALY":"207.3819"},{"MEAN_MOTION_DOT":"-0.00161754","EPOCH":"2023-04-24T16:55:12.646272","OBJECT_NAME":"STARLINK-5607","INCLINATION":"69.9995","MEAN_MOTION":"15.69272732","RCS_SIZE":"LARGE","PERIOD":"91.762","PERIAPSIS":"357.926","ARG_OF_PERICENTER":"321.2488","MEAN_ELEMENT_THEORY":"SGP4","CENTER_NAME":"EARTH","TIME_SYSTEM":"UTC","SITE":"AFWTR","RA_OF_ASC_NODE":"216.2793","ECCENTRICITY":"0.00045320","TLE_LINE1":"1 55404U 23014P   23114.70500748 -.00161754  00000-0 -14064-2 0  9993","COUNTRY_CODE":"US","MEAN_ANOMALY":"38.8381","LAUNCH_DATE":"2023-01-31","CLASSIFICATION_TYPE":"U","ELEMENT_SET_NO":"999","SEMIMAJOR_AXIS":"6739.115","OBJECT_TYPE":"PAYLOAD","BSTAR":"-0.00140640000000","NORAD_CAT_ID":"55404","EPHEMERIS_TYPE":"0","GP_ID":"230704445","FILE":"3893407","DECAY_DATE":null,"APOAPSIS":"364.035","REF_FRAME":"TEME","OBJECT_ID":"2023-014P","REV_AT_EPOCH":"1323","TLE_LINE2":"2 55404  69.9995 216.2793 0004532 321.2488  38.8381 15.69272732 13233","MEAN_MOTION_DDOT":"0.0000000000000"},{"APOAPSIS":"361.351","REF_FRAME":"TEME","REV_AT_EPOCH":"1323","OBJECT_ID":"2023-014Q","TLE_LINE2":"2 55405  69.9991 216.2776 0004346 263.0355  97.0347 15.70166324 13230","MEAN_MOTION_DDOT":"0.0000000000000","EPHEMERIS_TYPE":"0","OBJECT_TYPE":"PAYLOAD","BSTAR":"0.00025540000000","NORAD_CAT_ID":"55405","GP_ID":"230704008","FILE":"3893407","DECAY_DATE":null,"LAUNCH_DATE":"2023-01-31","CLASSIFICATION_TYPE":"U","ELEMENT_SET_NO":"999","SEMIMAJOR_AXIS":"6736.558","ECCENTRICITY":"0.00043460","TLE_LINE1":"1 55405U 23014Q   23114.70412310  .00030926  00000-0  25540-3 0  9997","COUNTRY_CODE":"US","MEAN_ANOMALY":"97.0347","CENTER_NAME":"EARTH","TIME_SYSTEM":"UTC","SITE":"AFWTR","RA_OF_ASC_NODE":"216.2776","PERIAPSIS":"355.496","MEAN_ELEMENT_THEORY":"SGP4","ARG_OF_PERICENTER":"263.0355","RCS_SIZE":"LARGE","PERIOD":"91.710","MEAN_MOTION_DOT":"0.00030926","EPOCH":"2023-04-24T16:53:56.235840","INCLINATION":"69.9991","OBJECT_NAME":"STARLINK-5623","MEAN_MOTION":"15.70166324"},{"MEAN_ELEMENT_THEORY":"SGP4","PERIAPSIS":"357.014","ARG_OF_PERICENTER":"257.5911","SITE":"AFWTR","RA_OF_ASC_NODE":"217.5332","CENTER_NAME":"EARTH","TIME_SYSTEM":"UTC","MEAN_MOTION":"15.69932934","INCLINATION":"69.9984","OBJECT_NAME":"STARLINK-5630","MEAN_MOTION_DOT":"0.00003024","EPOCH":"2023-04-24T06:12:45.251712","PERIOD":"91.724","RCS_SIZE":"LARGE","FILE":"3893330","DECAY_DATE":null,"BSTAR":"0.00002690100000","OBJECT_TYPE":"PAYLOAD","NORAD_CAT_ID":"55406","EPHEMERIS_TYPE":"0","GP_ID":"230702700","MEAN_MOTION_DDOT":"0.0000000000000","APOAPSIS":"361.167","REF_FRAME":"TEME","TLE_LINE2":"2 55406  69.9984 217.5332 0003082 257.5911 102.4940 15.69932934 14100","REV_AT_EPOCH":"1410","OBJECT_ID":"2023-014R","MEAN_ANOMALY":"102.4940","TLE_LINE1":"1 55406U 23014R   23114.25885708  .00003024  00000-0  26901-4 0  9995","ECCENTRICITY":"0.00030820","COUNTRY_CODE":"US","ELEMENT_SET_NO":"999","SEMIMAJOR_AXIS":"6737.226","LAUNCH_DATE":"2023-01-31","CLASSIFICATION_TYPE":"U"},{"MEAN_ANOMALY":"96.9211","COUNTRY_CODE":"US","ECCENTRICITY":"0.00032840","TLE_LINE1":"1 55407U 23014S   23114.25853998  .00001806  00000-0  16776-4 0  9997","SEMIMAJOR_AXIS":"6737.212","ELEMENT_SET_NO":"999","CLASSIFICATION_TYPE":"U","LAUNCH_DATE":"2023-01-31","FILE":"3893330","DECAY_DATE":null,"GP_ID":"230701449","OBJECT_TYPE":"PAYLOAD","EPHEMERIS_TYPE":"0","BSTAR":"0.00001677600000","NORAD_CAT_ID":"55407","MEAN_MOTION_DDOT":"0.0000000000000","REV_AT_EPOCH":"1410","OBJECT_ID":"2023-014S","TLE_LINE2":"2 55407  69.9978 217.5330 0003284 263.1611  96.9211 15.69937931 14106","REF_FRAME":"TEME","APOAPSIS":"361.289","INCLINATION":"69.9978","OBJECT_NAME":"STARLINK-5019","MEAN_MOTION":"15.69937931","EPOCH":"2023-04-24T06:12:17.854272","MEAN_MOTION_DOT":"0.00001806","PERIOD":"91.723","RCS_SIZE":"LARGE","PERIAPSIS":"356.864","MEAN_ELEMENT_THEORY":"SGP4","ARG_OF_PERICENTER":"263.1611","RA_OF_ASC_NODE":"217.5330","SITE":"AFWTR","TIME_SYSTEM":"UTC","CENTER_NAME":"EARTH"}];
